{"type": "FeatureCollection", "features": [ {"type": "Feature", "properties": {"norad_id": 41019, "name": "GPS BIIF-11 (PRN 10)", "group": "gnss", "lat": -46.31411007846545, "lon": -4.998715927350147, "alt_km": 20085.7680420254, "timestamp": "2025-12-08T17:43:05.171743+00:00", "meta": {"OBJECT_NAME": "GPS BIIF-11 (PRN 10)", "OBJECT_ID": "2015-062A", "EPOCH": "2025-12-07T07:48:52.356672", "MEAN_MOTION": 2.00566963, "ECCENTRICITY": 0.01106642, "INCLINATION": 56.8282, "RA_OF_ASC_NODE": 38.2118, "ARG_OF_PERICENTER": 229.7833, "MEAN_ANOMALY": 129.2989, "EPHEMERIS_TYPE": 0, "CLASSIFICATION_TYPE": "U", "NORAD_CAT_ID": 41019, "ELEMENT_SET_NO": 999, "REV_AT_EPOCH": 7398, "BSTAR": 0, "MEAN_MOTION_DOT": -7.2e-07, "MEAN_MOTION_DDOT": 0}, "tle": {"line1": "1 41019U 15062A   25341.32560598 -.00000072  00000+0  00000+0 0  9990", "line2": "2 41019  56.8282  38.2118 0110664 229.7833 129.2989  2.00566963 73987"}}, "geometry": {"type": "Point", "coordinates": [-4.998715927350147, -46.31411007846545]}}, {"type": "Feature", "properties": {"norad_id": 41028, "name": "GSAT-15 (GAGAN/PRN 139)", "group": "gnss", "lat": 0.011520078714678144, "lon": 76.99925736435905, "alt_km": 35798.22399979523, "timestamp": "2025-12-08T17:43:05.171754+00:00", "meta": {"OBJECT_NAME": "GSAT-15 (GAGAN/PRN 139)", "OBJECT_ID": "2015-065A", "EPOCH": "2025-12-08T03:08:38.805216", "MEAN_MOTION": 1.00270762, "ECCENTRICITY": 0.00029315, "INCLINATION": 0.0426, "RA_OF_ASC_NODE": 95.9999, "ARG_OF_PERICENTER": 142.8397, "MEAN_ANOMALY": 338.9684, "EPHEMERIS_TYPE": 0, "CLASSIFICATION_TYPE": "U", "NORAD_CAT_ID": 41028, "ELEMENT_SET_NO": 999, "REV_AT_EPOCH": 3688, "BSTAR": 0, "MEAN_MOTION_DOT": -2.55e-06, "MEAN_MOTION_DDOT": 0}, "tle": {"line1": "1 41028U 15065A   25342.13100469 -.00000255  00000+0  00000+0 0  9993", "line2": "2 41028   0.0426  95.9999 0002931 142.8397 338.9684  1.00270762 36889"}}, "geometry": {"type": "Point", "coordinates": [76.99925736435905, 0.011520078714678144]}}, {"type": "Feature", "properties": {"norad_id": 41174, "name": "GSAT0209 (GALILEO 12)", "group": "gnss", "lat": -22.982761648200572, "lon": -56.71600475869062, "alt_km": 23231.22318583471, "timestamp": "2025-12-08T17:43:05.171766+00:00", "meta": {"OBJECT_NAME": "GSAT0209 (GALILEO 12)", "OBJECT_ID": "2015-079A", "EPOCH": "2025-12-01T22:43:10.411392", "MEAN_MOTION": 1.70474306, "ECCENTRICITY": 0.0002352, "INCLINATION": 55.7062, "RA_OF_ASC_NODE": 106.6773, "ARG_OF_PERICENTER": 357.4206, "MEAN_ANOMALY": 2.5431, "EPHEMERIS_TYPE": 0, "CLASSIFICATION_TYPE": "U", "NORAD_CAT_ID": 41174, "ELEMENT_SET_NO": 999, "REV_AT_EPOCH": 6141, "BSTAR": 0, "MEAN_MOTION_DOT": 3.5e-07, "MEAN_MOTION_DDOT": 0}, "tle": {"line1": "1 41174U 15079A   25335.94664828  .00000035  00000+0  00000+0 0  9990", "line2": "2 41174  55.7062 106.6773 0002352 357.4206   2.5431  1.70474306 61412"}}, "geometry": {"type": "Point", "coordinates": [-56.71600475869062, -22.982761648200572]}}, {"type": "Feature", "properties": {"norad_id": 41175, "name": "GSAT0208 (GALILEO 11)", "group": "gnss", "lat": 52.23892036865696, "lon": 168.12616529636648, "alt_km": 23214.004636591926, "timestamp": "2025-12-08T17:43:05.171777+00:00", "meta": {"OBJECT_NAME": "GSAT0208 (GALILEO 11)", "OBJECT_ID": "2015-079B", "EPOCH": "2025-12-07T10:42:17.817120", "MEAN_MOTION": 1.70474201, "ECCENTRICITY": 0.00018539, "INCLINATION": 55.7081, "RA_OF_ASC_NODE": 106.5234, "ARG_OF_PERICENTER": 5.1909, "MEAN_ANOMALY": 354.7678, "EPHEMERIS_TYPE": 0, "CLASSIFICATION_TYPE": "U", "NORAD_CAT_ID": 41175, "ELEMENT_SET_NO": 999, "REV_AT_EPOCH": 6192, "BSTAR": 0, "MEAN_MOTION_DOT": 8e-08, "MEAN_MOTION_DDOT": 0}, "tle": {"line1": "1 41175U 15079B   25341.44603955  .00000008  00000+0  00000+0 0  9997", "line2": "2 41175  55.7081 106.5234 0001853   5.1909 354.7678  1.70474201 61922"}}, "geometry": {"type": "Point", "coordinates": [168.12616529636648, 52.23892036865696]}}, {"type": "Feature", "properties": {"norad_id": 41241, "name": "IRNSS-1E", "group": "gnss", "lat": 17.026197978202212, "lon": 90.83608439960538, "alt_km": 35866.564460032896, "timestamp": "2025-12-08T17:43:05.171789+00:00", "meta": {"OBJECT_NAME": "IRNSS-1E", "OBJECT_ID": "2016-003A", "EPOCH": "2025-12-07T15:52:32.094912", "MEAN_MOTION": 1.00275984, "ECCENTRICITY": 0.00218847, "INCLINATION": 32.8144, "RA_OF_ASC_NODE": 62.5276, "ARG_OF_PERICENTER": 186.9179, "MEAN_ANOMALY": 177.1372, "EPHEMERIS_TYPE": 0, "CLASSIFICATION_TYPE": "U", "NORAD_CAT_ID": 41241, "ELEMENT_SET_NO": 999, "REV_AT_EPOCH": 3616, "BSTAR": 0, "MEAN_MOTION_DOT": -3.13e-06, "MEAN_MOTION_DDOT": 0}, "tle": {"line1": "1 41241U 16003A   25341.66148258 -.00000313  00000+0  00000+0 0  9993", "line2": "2 41241  32.8144  62.5276 0021884 186.9179 177.1372  1.00275984 36168"}}, "geometry": {"type": "Point", "coordinates": [90.83608439960538, 17.026197978202212]}}, {"type": "Feature", "properties": {"norad_id": 41328, "name": "GPS BIIF-12 (PRN 32)", "group": "gnss", "lat": -45.20432222929471, "lon": -39.01533436577216, "alt_km": 19944.36837424828, "timestamp": "2025-12-08T17:43:05.171811+00:00", "meta": {"OBJECT_NAME": "GPS BIIF-12 (PRN 32)", "OBJECT_ID": "2016-007A", "EPOCH": "2025-12-07T09:47:29.747616", "MEAN_MOTION": 2.00560863, "ECCENTRICITY": 0.0091895, "INCLINATION": 55.4032, "RA_OF_ASC_NODE": 97.0687, "ARG_OF_PERICENTER": 243.44, "MEAN_ANOMALY": 115.5952, "EPHEMERIS_TYPE": 0, "CLASSIFICATION_TYPE": "U", "NORAD_CAT_ID": 41328, "ELEMENT_SET_NO": 999, "REV_AT_EPOCH": 7199, "BSTAR": 0, "MEAN_MOTION_DOT": -4e-08, "MEAN_MOTION_DDOT": 0}, "tle": {"line1": "1 41328U 16007A   25341.40798319 -.00000004  00000+0  00000+0 0  9991", "line2": "2 41328  55.4032  97.0687 0091895 243.4400 115.5952  2.00560863 71999"}}, "geometry": {"type": "Point", "coordinates": [-39.01533436577216, -45.20432222929471]}}, {"type": "Feature", "properties": {"norad_id": 41330, "name": "COSMOS 2514 (751)", "group": "gnss", "lat": -18.81825887005689, "lon": -49.56159231365571, "alt_km": 19147.93740059884, "timestamp": "2025-12-08T17:43:05.171881+00:00", "meta": {"OBJECT_NAME": "COSMOS 2514 (751)", "OBJECT_ID": "2016-008A", "EPOCH": "2025-12-07T19:50:46.203360", "MEAN_MOTION": 2.13102518, "ECCENTRICITY": 0.00122791, "INCLINATION": 65.1366, "RA_OF_ASC_NODE": 319.5722, "ARG_OF_PERICENTER": 220.0209, "MEAN_ANOMALY": 139.8828, "EPHEMERIS_TYPE": 0, "CLASSIFICATION_TYPE": "U", "NORAD_CAT_ID": 41330, "ELEMENT_SET_NO": 999, "REV_AT_EPOCH": 7654, "BSTAR": 0, "MEAN_MOTION_DOT": -4.9e-07, "MEAN_MOTION_DDOT": 0}, "tle": {"line1": "1 41330U 16008A   25341.82692365 -.00000049  00000+0  00000+0 0  9994", "line2": "2 41330  65.1366 319.5722 0012279 220.0209 139.8828  2.13102518 76549"}}, "geometry": {"type": "Point", "coordinates": [-49.56159231365571, -18.81825887005689]}}, {"type": "Feature", "properties": {"norad_id": 41384, "name": "IRNSS-1F", "group": "gnss", "lat": -4.843908381140821, "lon": 16.151693542610346, "alt_km": 35794.83094296413, "timestamp": "2025-12-08T17:43:05.171898+00:00", "meta": {"OBJECT_NAME": "IRNSS-1F", "OBJECT_ID": "2016-015A", "EPOCH": "2025-12-08T01:46:20.561376", "MEAN_MOTION": 1.00270051, "ECCENTRICITY": 0.00224659, "INCLINATION": 4.8688, "RA_OF_ASC_NODE": 101.4155, "ARG_OF_PERICENTER": 180.1007, "MEAN_ANOMALY": 214.5202, "EPHEMERIS_TYPE": 0, "CLASSIFICATION_TYPE": "U", "NORAD_CAT_ID": 41384, "ELEMENT_SET_NO": 999, "REV_AT_EPOCH": 3575, "BSTAR": 0, "MEAN_MOTION_DOT": 1.6e-06, "MEAN_MOTION_DDOT": 0}, "tle": {"line1": "1 41384U 16015A   25342.07384909  .00000160  00000+0  00000+0 0  9994", "line2": "2 41384   4.8688 101.4155 0022465 180.1007 214.5202  1.00270051 35751"}}, "geometry": {"type": "Point", "coordinates": [16.151693542610346, -4.843908381140821]}}, {"type": "Feature", "properties": {"norad_id": 41434, "name": "BEIDOU-2 IGSO-6 (C13)", "group": "gnss", "lat": 29.921067671083257, "lon": 59.405178745150145, "alt_km": 36028.00547244398, "timestamp": "2025-12-08T17:43:05.171911+00:00", "meta": {"OBJECT_NAME": "BEIDOU-2 IGSO-6 (C13)", "OBJECT_ID": "2016-021A", "EPOCH": "2025-12-01T15:57:35.287200", "MEAN_MOTION": 1.00256562, "ECCENTRICITY": 0.00591323, "INCLINATION": 59.9483, "RA_OF_ASC_NODE": 40.0119, "ARG_OF_PERICENTER": 231.2834, "MEAN_ANOMALY": 130.8807, "EPHEMERIS_TYPE": 0, "CLASSIFICATION_TYPE": "U", "NORAD_CAT_ID": 41434, "ELEMENT_SET_NO": 999, "REV_AT_EPOCH": 3550, "BSTAR": 0, "MEAN_MOTION_DOT": -1.55e-06, "MEAN_MOTION_DDOT": 0}, "tle": {"line1": "1 41434U 16021A   25335.66499175 -.00000155  00000+0  00000+0 0  9991", "line2": "2 41434  59.9483  40.0119 0059132 231.2834 130.8807  1.00256562 35501"}}, "geometry": {"type": "Point", "coordinates": [59.405178745150145, 29.921067671083257]}}, {"type": "Feature", "properties": {"norad_id": 41469, "name": "IRNSS-1G", "group": "gnss", "lat": 0.8905629144165593, "lon": 112.79424651037841, "alt_km": 35775.440449139285, "timestamp": "2025-12-08T17:43:05.171925+00:00", "meta": {"OBJECT_NAME": "IRNSS-1G", "OBJECT_ID": "2016-027A", "EPOCH": "2025-12-08T07:22:13.065888", "MEAN_MOTION": 1.00251482, "ECCENTRICITY": 0.00046504, "INCLINATION": 4.7221, "RA_OF_ASC_NODE": 102.2137, "ARG_OF_PERICENTER": 336.3682, "MEAN_ANOMALY": 238.6067, "EPHEMERIS_TYPE": 0, "CLASSIFICATION_TYPE": "U", "NORAD_CAT_ID": 41469, "ELEMENT_SET_NO": 999, "REV_AT_EPOCH": 3526, "BSTAR": 0, "MEAN_MOTION_DOT": -3.35e-06, "MEAN_MOTION_DDOT": 0}, "tle": {"line1": "1 41469U 16027A   25342.30709567 -.00000335  00000+0  00000+0 0  9993", "line2": "2 41469   4.7221 102.2137 0004650 336.3682 238.6067  1.00251482 35265"}}, "geometry": {"type": "Point", "coordinates": [112.79424651037841, 0.8905629144165593]}}]}